STARLINK-36854          
1 68312U 26057U   26087.83335647 -.01161581  45103-3 -18639-2 0  9992
2 68312  97.2788 210.9678 0001246  81.5901 182.7633 16.03652820  2288
STARLINK-36815          
1 68313U 26057V   26087.83335647 -.01148224  44211-3 -18294-2 0  9998
2 68313  97.2789 210.9693 0001190  70.0825 197.1132 16.03771002  2281
STARLINK-37155          
1 68314U 26057W   26087.83335647 -.01166112  45643-3 -18276-2 0  9995
2 68314  97.2785 210.9717 0001228  83.1139 190.0098 16.04050115  2335
STARLINK-37150          
1 68315U 26057X   26087.58335648 -.01190923  47710-3 -18173-2 0  9999
2 68315  97.2788 210.6972 0001234  77.5738 190.0107 16.04500506  2298
STARLINK-37154          
1 68316U 26057Y   26087.58335648 -.01179844  47118-3 -17576-2 0  9997
2 68316  97.2783 210.7007 0001082  61.7643 214.2172 16.04899785  2195
STARLINK-37139          
1 68317U 26057Z   26087.58335648 -.01190394  47823-3 -17877-2 0  9998
2 68317  97.2784 210.6995 0001119  71.6565 201.4756 16.04766554  2043
STARLINK-37113          
1 68318U 26057AA  26087.58335648 -.01180813  47273-3 -17435-2 0  9993
2 68318  97.2782 210.7022 0001131  63.2630 215.7141 16.05046501  2295
